{"type": "FeatureCollection", "features": [ {"type": "Feature", "properties": {"norad_id": 37278, "name": "COSMOS 2251 DEB", "group": "cosmos-2251-debris", "lat": -25.869233830874645, "lon": -4.225804533630025, "alt_km": 1023.676295316628, "timestamp": "2025-12-04T15:47:54.496779+00:00", "meta": {"OBJECT_NAME": "COSMOS 2251 DEB", "OBJECT_ID": "1993-036BHS", "EPOCH": "2025-12-02T09:56:27.053664", "MEAN_MOTION": 14.15004215, "ECCENTRICITY": 0.03002048, "INCLINATION": 73.7872, "RA_OF_ASC_NODE": 7.9316, "ARG_OF_PERICENTER": 192.1474, "MEAN_ANOMALY": 231.9822, "EPHEMERIS_TYPE": 0, "CLASSIFICATION_TYPE": "U", "NORAD_CAT_ID": 37278, "ELEMENT_SET_NO": 999, "REV_AT_EPOCH": 63683, "BSTAR": 0.0013681132, "MEAN_MOTION_DOT": 4.07e-05, "MEAN_MOTION_DDOT": 0}, "tle": {"line1": "1 37278U 93036BHS 25336.41420201  .00004070  00000+0  13681-2 0  9992", "line2": "2 37278  73.7872   7.9316 0300204 192.1474 231.9822 14.15004215636832"}}, "geometry": {"type": "Point", "coordinates": [-4.225804533630025, -25.869233830874645]}}, {"type": "Feature", "properties": {"norad_id": 37280, "name": "COSMOS 2251 DEB", "group": "cosmos-2251-debris", "lat": 22.34623476233885, "lon": -115.24384559167794, "alt_km": 759.5578862385473, "timestamp": "2025-12-04T15:47:54.496789+00:00", "meta": {"OBJECT_NAME": "COSMOS 2251 DEB", "OBJECT_ID": "1993-036BHU", "EPOCH": "2025-12-02T00:27:32.804352", "MEAN_MOTION": 14.19175148, "ECCENTRICITY": 0.01319076, "INCLINATION": 74.0306, "RA_OF_ASC_NODE": 76.2311, "ARG_OF_PERICENTER": 206.963, "MEAN_ANOMALY": 152.4621, "EPHEMERIS_TYPE": 0, "CLASSIFICATION_TYPE": "U", "NORAD_CAT_ID": 37280, "ELEMENT_SET_NO": 999, "REV_AT_EPOCH": 57171, "BSTAR": 0.0022688373, "MEAN_MOTION_DOT": 5.159e-05, "MEAN_MOTION_DDOT": 0}, "tle": {"line1": "1 37280U 93036BHU 25336.01912968  .00005159  00000+0  22688-2 0  9993", "line2": "2 37280  74.0306  76.2311 0131907 206.9630 152.4621 14.19175148571712"}}, "geometry": {"type": "Point", "coordinates": [-115.24384559167794, 22.34623476233885]}}, {"type": "Feature", "properties": {"norad_id": 37284, "name": "COSMOS 2251 DEB", "group": "cosmos-2251-debris", "lat": -9.842488703680639, "lon": 168.18369895938122, "alt_km": 748.9527531880431, "timestamp": "2025-12-04T15:47:54.496800+00:00", "meta": {"OBJECT_NAME": "COSMOS 2251 DEB", "OBJECT_ID": "1993-036BHY", "EPOCH": "2025-12-03T06:41:07.429344", "MEAN_MOTION": 14.12637571, "ECCENTRICITY": 0.0160501, "INCLINATION": 74.014, "RA_OF_ASC_NODE": 173.4758, "ARG_OF_PERICENTER": 327.2268, "MEAN_ANOMALY": 208.0827, "EPHEMERIS_TYPE": 0, "CLASSIFICATION_TYPE": "U", "NORAD_CAT_ID": 37284, "ELEMENT_SET_NO": 999, "REV_AT_EPOCH": 59041, "BSTAR": 0.0016372, "MEAN_MOTION_DOT": 3.402e-05, "MEAN_MOTION_DDOT": 0}, "tle": {"line1": "1 37284U 93036BHY 25337.27855821  .00003402  00000+0  16372-2 0  9992", "line2": "2 37284  74.0140 173.4758 0160501 327.2268 208.0827 14.12637571590413"}}, "geometry": {"type": "Point", "coordinates": [168.18369895938122, -9.842488703680639]}}, {"type": "Feature", "properties": {"norad_id": 37295, "name": "COSMOS 2251 DEB", "group": "cosmos-2251-debris", "lat": -57.300890561868854, "lon": -89.33025397730553, "alt_km": 714.2048374551005, "timestamp": "2025-12-04T15:47:54.496811+00:00", "meta": {"OBJECT_NAME": "COSMOS 2251 DEB", "OBJECT_ID": "1993-036BJK", "EPOCH": "2025-12-01T04:30:08.731584", "MEAN_MOTION": 14.65123594, "ECCENTRICITY": 0.00437469, "INCLINATION": 74.0068, "RA_OF_ASC_NODE": 303.8923, "ARG_OF_PERICENTER": 126.7963, "MEAN_ANOMALY": 233.7233, "EPHEMERIS_TYPE": 0, "CLASSIFICATION_TYPE": "U", "NORAD_CAT_ID": 37295, "ELEMENT_SET_NO": 999, "REV_AT_EPOCH": 82135, "BSTAR": 0.00057778641, "MEAN_MOTION_DOT": 3.118e-05, "MEAN_MOTION_DDOT": 0}, "tle": {"line1": "1 37295U 93036BJK 25335.18760106  .00003118  00000+0  57779-3 0  9994", "line2": "2 37295  74.0068 303.8923 0043746 126.7963 233.7233 14.65123594821351"}}, "geometry": {"type": "Point", "coordinates": [-89.33025397730553, -57.300890561868854]}}, {"type": "Feature", "properties": {"norad_id": 37305, "name": "COSMOS 2251 DEB", "group": "cosmos-2251-debris", "lat": -24.677953697054157, "lon": 133.15145837624704, "alt_km": 759.1575009958578, "timestamp": "2025-12-04T15:47:54.496822+00:00", "meta": {"OBJECT_NAME": "COSMOS 2251 DEB", "OBJECT_ID": "1993-036BJV", "EPOCH": "2025-12-01T04:54:57.845088", "MEAN_MOTION": 14.36058989, "ECCENTRICITY": 0.0050534, "INCLINATION": 73.8694, "RA_OF_ASC_NODE": 311.9126, "ARG_OF_PERICENTER": 273.9871, "MEAN_ANOMALY": 85.5504, "EPHEMERIS_TYPE": 0, "CLASSIFICATION_TYPE": "U", "NORAD_CAT_ID": 37305, "ELEMENT_SET_NO": 999, "REV_AT_EPOCH": 66701, "BSTAR": 0.00088749, "MEAN_MOTION_DOT": 2.593e-05, "MEAN_MOTION_DDOT": 0}, "tle": {"line1": "1 37305U 93036BJV 25335.20483617  .00002593  00000+0  88749-3 0  9995", "line2": "2 37305  73.8694 311.9126 0050534 273.9871  85.5504 14.36058989667014"}}, "geometry": {"type": "Point", "coordinates": [133.15145837624704, -24.677953697054157]}}, {"type": "Feature", "properties": {"norad_id": 37312, "name": "COSMOS 2251 DEB", "group": "cosmos-2251-debris", "lat": -39.804026626478375, "lon": -154.53817441315448, "alt_km": 731.7380953296233, "timestamp": "2025-12-04T15:47:54.496832+00:00", "meta": {"OBJECT_NAME": "COSMOS 2251 DEB", "OBJECT_ID": "1993-036BKC", "EPOCH": "2025-12-03T01:48:10.090656", "MEAN_MOTION": 14.46074055, "ECCENTRICITY": 0.00181668, "INCLINATION": 74.0321, "RA_OF_ASC_NODE": 222.2189, "ARG_OF_PERICENTER": 326.4091, "MEAN_ANOMALY": 33.5914, "EPHEMERIS_TYPE": 0, "CLASSIFICATION_TYPE": "U", "NORAD_CAT_ID": 37312, "ELEMENT_SET_NO": 999, "REV_AT_EPOCH": 86024, "BSTAR": 0.00063141036, "MEAN_MOTION_DOT": 2.231e-05, "MEAN_MOTION_DDOT": 0}, "tle": {"line1": "1 37312U 93036BKC 25337.07511679  .00002231  00000+0  63141-3 0  9998", "line2": "2 37312  74.0321 222.2189 0018166 326.4091  33.5914 14.46074055860249"}}, "geometry": {"type": "Point", "coordinates": [-154.53817441315448, -39.804026626478375]}}, {"type": "Feature", "properties": {"norad_id": 37316, "name": "COSMOS 2251 DEB", "group": "cosmos-2251-debris", "lat": -15.969287378103937, "lon": -137.93310045832203, "alt_km": 589.7091110281262, "timestamp": "2025-12-04T15:47:54.496842+00:00", "meta": {"OBJECT_NAME": "COSMOS 2251 DEB", "OBJECT_ID": "1993-036BKG", "EPOCH": "2025-12-03T03:33:34.876512", "MEAN_MOTION": 14.93653646, "ECCENTRICITY": 0.00242896, "INCLINATION": 74.0165, "RA_OF_ASC_NODE": 40.4029, "ARG_OF_PERICENTER": 114.0887, "MEAN_ANOMALY": 246.2841, "EPHEMERIS_TYPE": 0, "CLASSIFICATION_TYPE": "U", "NORAD_CAT_ID": 37316, "ELEMENT_SET_NO": 999, "REV_AT_EPOCH": 86000, "BSTAR": 0.00081669727, "MEAN_MOTION_DOT": 8.654e-05, "MEAN_MOTION_DDOT": 0}, "tle": {"line1": "1 37316U 93036BKG 25337.14832033  .00008654  00000+0  81670-3 0  9992", "line2": "2 37316  74.0165  40.4029 0024289 114.0887 246.2841 14.93653646860006"}}, "geometry": {"type": "Point", "coordinates": [-137.93310045832203, -15.969287378103937]}}, {"type": "Feature", "properties": {"norad_id": 37320, "name": "COSMOS 2251 DEB", "group": "cosmos-2251-debris", "lat": 60.31611517594628, "lon": -95.84007784974666, "alt_km": 634.2533302483898, "timestamp": "2025-12-04T15:47:54.496852+00:00", "meta": {"OBJECT_NAME": "COSMOS 2251 DEB", "OBJECT_ID": "1993-036BKL", "EPOCH": "2025-12-04T00:53:37.295808", "MEAN_MOTION": 14.78594712, "ECCENTRICITY": 0.00470014, "INCLINATION": 74.0468, "RA_OF_ASC_NODE": 235.2578, "ARG_OF_PERICENTER": 323.9902, "MEAN_ANOMALY": 35.8109, "EPHEMERIS_TYPE": 0, "CLASSIFICATION_TYPE": "U", "NORAD_CAT_ID": 37320, "ELEMENT_SET_NO": 999, "REV_AT_EPOCH": 66018, "BSTAR": 0.0019036276, "MEAN_MOTION_DOT": 0.00014187, "MEAN_MOTION_DDOT": 0}, "tle": {"line1": "1 37320U 93036BKL 25338.03723722  .00014187  00000+0  19036-2 0  9994", "line2": "2 37320  74.0468 235.2578 0047001 323.9902  35.8109 14.78594712660183"}}, "geometry": {"type": "Point", "coordinates": [-95.84007784974666, 60.31611517594628]}}, {"type": "Feature", "properties": {"norad_id": 37326, "name": "COSMOS 2251 DEB", "group": "cosmos-2251-debris", "lat": 45.831367809139685, "lon": 7.315036770148275, "alt_km": 672.9131100769155, "timestamp": "2025-12-04T15:47:54.496863+00:00", "meta": {"OBJECT_NAME": "COSMOS 2251 DEB", "OBJECT_ID": "1993-036BKS", "EPOCH": "2025-12-04T07:21:50.717664", "MEAN_MOTION": 14.61511015, "ECCENTRICITY": 0.00543752, "INCLINATION": 74.026, "RA_OF_ASC_NODE": 350.8371, "ARG_OF_PERICENTER": 122.6776, "MEAN_ANOMALY": 237.9652, "EPHEMERIS_TYPE": 0, "CLASSIFICATION_TYPE": "U", "NORAD_CAT_ID": 37326, "ELEMENT_SET_NO": 999, "REV_AT_EPOCH": 85360, "BSTAR": 0.001033018, "MEAN_MOTION_DOT": 5.206e-05, "MEAN_MOTION_DDOT": 0}, "tle": {"line1": "1 37326U 93036BKS 25338.30683701  .00005206  00000+0  10330-2 0  9992", "line2": "2 37326  74.0260 350.8371 0054375 122.6776 237.9652 14.61511015853605"}}, "geometry": {"type": "Point", "coordinates": [7.315036770148275, 45.831367809139685]}}, {"type": "Feature", "properties": {"norad_id": 37330, "name": "COSMOS 2251 DEB", "group": "cosmos-2251-debris", "lat": 68.94558871654306, "lon": 82.39681239680017, "alt_km": 665.7421616761249, "timestamp": "2025-12-04T15:47:54.496873+00:00", "meta": {"OBJECT_NAME": "COSMOS 2251 DEB", "OBJECT_ID": "1993-036BKW", "EPOCH": "2025-12-03T16:17:30.112800", "MEAN_MOTION": 14.59495159, "ECCENTRICITY": 0.00573922, "INCLINATION": 74.0171, "RA_OF_ASC_NODE": 312.3849, "ARG_OF_PERICENTER": 163.4289, "MEAN_ANOMALY": 196.877, "EPHEMERIS_TYPE": 0, "CLASSIFICATION_TYPE": "U", "NORAD_CAT_ID": 37330, "ELEMENT_SET_NO": 999, "REV_AT_EPOCH": 86236, "BSTAR": 0.00044650599, "MEAN_MOTION_DOT": 2.138e-05, "MEAN_MOTION_DDOT": 0}, "tle": {"line1": "1 37330U 93036BKW 25337.67882075  .00002138  00000+0  44651-3 0  9996", "line2": "2 37330  74.0171 312.3849 0057392 163.4289 196.8770 14.59495159862362"}}, "geometry": {"type": "Point", "coordinates": [82.39681239680017, 68.94558871654306]}}]}